COMMENT,ORIGINATOR,NORAD_CAT_ID,OBJECT_NAME,OBJECT_TYPE,CLASSIFICATION_TYPE,INTLDES,EPOCH,EPOCH_MICROSECONDS,MEAN_MOTION,ECCENTRICITY,INCLINATION,RA_OF_ASC_NODE,ARG_OF_PERICENTER,MEAN_ANOMALY,EPHEMERIS_TYPE,ELEMENT_SET_NO,REV_AT_EPOCH,BSTAR,MEAN_MOTION_DOT,MEAN_MOTION_DDOT,FILE,TLE_LINE0,TLE_LINE1,TLE_LINE2,OBJECT_ID,OBJECT_NUMBER,SEMIMAJOR_AXIS,PERIOD,APOGEE,PERIGEE,DECAYED
GENERATED VIA SPACETRACK.ORG API,18 SPCS,26998,TIMED,PAYLOAD,U,01055B,11/13/24 10:41,377312,14.92646374,0.0003038,74.07,322.2794,296.466,63.6211,0,999,24408,0.00034792,0.00003549,0,4552726,0 TIMED,1 26998U 01055B   24318.44546733  .00003549  00000-0  34792-3 0  9998,2 26998  74.0700 322.2794 0003038 296.4660  63.6211 14.92646374244083,2001-055B,26998,6967.825,96.473,591.807,587.573,0
GENERATED VIA SPACETRACK.ORG API,18 SPCS,26998,TIMED,PAYLOAD,U,01055B,11/13/24 17:07,712736,14.92647497,0.0003042,74.0699,321.7417,296.0103,64.0766,0,999,24412,0.00031565,0.00003216,0,4552980,0 TIMED,1 26998U 01055B   24318.71356149  .00003216  00000-0  31565-3 0  9994,2 26998  74.0699 321.7417 0003042 296.0103  64.0766 14.92647497244121,2001-055B,26998,6967.821,96.473,591.806,587.567,0
GENERATED VIA SPACETRACK.ORG API,18 SPCS,26998,TIMED,PAYLOAD,U,01055B,11/13/24 21:57,176288,14.92649171,0.000304,74.0698,321.3385,295.5966,64.4903,0,999,24429,0.00032008,0.00003262,0,4553021,0 TIMED,1 26998U 01055B   24318.91463167  .00003262  00000-0  32008-3 0  9999,2 26998  74.0698 321.3385 0003040 295.5966  64.4903 14.92649171244295,2001-055B,26998,6967.816,96.473,591.799,587.563,0
GENERATED VIA SPACETRACK.ORG API,18 SPCS,26998,TIMED,PAYLOAD,U,01055B,11/14/24 10:49,785792,14.92652091,0.0003057,74.0696,320.2632,294.7304,65.356,0,999,24423,0.00032267,0.00003289,0,4553643,0 TIMED,1 26998U 01055B   24319.45081928  .00003289  00000-0  32267-3 0  9996,2 26998  74.0696 320.2632 0003057 294.7304  65.3560 14.92652091244239,2001-055B,26998,6967.807,96.473,591.802,587.542,0
GENERATED VIA SPACETRACK.ORG API,18 SPCS,26998,TIMED,PAYLOAD,U,01055B,11/15/24 2:54,828000,14.92656407,0.0003073,74.0695,318.9191,293.7617,66.3244,0,999,24447,0.00031917,0.00003253,0,4553961,0 TIMED,1 26998U 01055B   24320.12105125  .00003253  00000-0  31917-3 0  9990,2 26998  74.0695 318.9191 0003073 293.7617  66.3244 14.92656407244477,2001-055B,26998,6967.794,96.472,591.8,587.517,0
GENERATED VIA SPACETRACK.ORG API,18 SPCS,26998,TIMED,PAYLOAD,U,01055B,11/15/24 10:56,769184,14.92658469,0.0003082,74.0695,318.2471,293.6349,66.451,0,999,24438,0.00031493,0.00003209,0,4554610,0 TIMED,1 26998U 01055B   24320.45616631  .00003209  00000-0  31493-3 0  9995,2 26998  74.0695 318.2471 0003082 293.6349  66.4510 14.92658469244389,2001-055B,26998,6967.787,96.472,591.8,587.505,0
GENERATED VIA SPACETRACK.ORG API,18 SPCS,26998,TIMED,PAYLOAD,U,01055B,11/15/24 22:12,251072,14.92662369,0.0003082,74.0695,317.3062,292.8827,67.203,0,999,24445,0.00034356,0.00003505,0,4554947,0 TIMED,1 26998U 01055B   24320.92532698  .00003505  00000-0  34356-3 0  9997,2 26998  74.0695 317.3062 0003082 292.8827  67.2030 14.92662369244455,2001-055B,26998,6967.775,96.472,591.787,587.493,0
GENERATED VIA SPACETRACK.ORG API,18 SPCS,26998,TIMED,PAYLOAD,U,01055B,11/16/24 3:02,566880,14.9266372,0.0003087,74.0695,316.903,292.7475,67.3381,0,999,24462,0.00034565,0.00003527,0,4555010,0 TIMED,1 26998U 01055B   24321.12639545  .00003527  00000-0  34565-3 0  9995,2 26998  74.0695 316.9030 0003087 292.7475  67.3381 14.92663720244629,2001-055B,26998,6967.771,96.472,591.787,587.485,0
GENERATED VIA SPACETRACK.ORG API,18 SPCS,26998,TIMED,PAYLOAD,U,01055B,11/16/24 3:02,566880,14.9266372,0.0003087,74.0695,316.903,292.7475,67.3381,0,999,24448,0.00034565,0.00003527,0,4555594,0 TIMED,1 26998U 01055B   24321.12639545  .00003527  00000-0  34565-3 0  9995,2 26998  74.0695 316.9030 0003087 292.7475  67.3381 14.92663720244483,2001-055B,26998,6967.771,96.472,591.787,587.485,0
GENERATED VIA SPACETRACK.ORG API,18 SPCS,26998,TIMED,PAYLOAD,U,01055B,11/17/24 20:51,342016,14.9267015,0.000309,74.0695,313.4085,290.988,69.0972,0,999,24474,0.00025061,0.00002546,0,4556486,0 TIMED,1 26998U 01055B   24322.86898544  .00002546  00000-0  25061-3 0  9994,2 26998  74.0695 313.4085 0003090 290.9880  69.0972 14.92670150244748,2001-055B,26998,6967.751,96.471,591.769,587.463,0
GENERATED VIA SPACETRACK.ORG API,18 SPCS,26998,TIMED,PAYLOAD,U,01055B,11/18/24 8:06,503360,14.92672273,0.0003106,74.0695,312.4677,290.4638,69.6212,0,999,24481,0.00023857,0.00002422,0,4557070,0 TIMED,1 26998U 01055B   24323.33814240  .00002422  00000-0  23857-3 0  9992,2 26998  74.0695 312.4677 0003106 290.4638  69.6212 14.92672273244817,2001-055B,26998,6967.744,96.471,591.773,587.445,0
GENERATED VIA SPACETRACK.ORG API,18 SPCS,26998,TIMED,PAYLOAD,U,01055B,11/18/24 16:09,151648,14.92674031,0.0003111,74.0695,311.7956,290.1162,69.9687,0,999,24500,0.00023691,0.00002405,0,4557149,0 TIMED,1 26998U 01055B   24323.67325407  .00002405  00000-0  23691-3 0  9998,2 26998  74.0695 311.7956 0003111 290.1162  69.9687 14.92674031245009,2001-055B,26998,6967.739,96.471,591.771,587.436,0
GENERATED VIA SPACETRACK.ORG API,18 SPCS,26998,TIMED,PAYLOAD,U,01055B,11/18/24 22:35,31744,14.92675543,0.0003112,74.0696,311.258,289.4089,70.6758,0,999,24490,0.0002363,0.00002399,0,4557409,0 TIMED,1 26998U 01055B   24323.94134296  .00002399  00000-0  23630-3 0  9997,2 26998  74.0696 311.2580 0003112 289.4089  70.6758 14.92675543244903,2001-055B,26998,6967.734,96.471,591.767,587.431,0
GENERATED VIA SPACETRACK.ORG API,18 SPCS,26998,TIMED,PAYLOAD,U,01055B,11/19/24 9:51,43616,14.92678354,0.0003138,74.0697,310.3172,288.6739,71.4103,0,999,24497,0.00025043,0.00002545,0,4558021,0 TIMED,1 26998U 01055B   24324.41049819  .00002545  00000-0  25043-3 0  9999,2 26998  74.0697 310.3172 0003138 288.6739  71.4103 14.92678354244975,2001-055B,26998,6967.725,96.471,591.777,587.404,0
GENERATED VIA SPACETRACK.ORG API,18 SPCS,26998,TIMED,PAYLOAD,U,01055B,11/19/24 16:17,865824,14.92680112,0.0003145,74.0697,309.7796,288.3639,71.7202,0,999,24515,0.00026004,0.00002644,0,4558110,0 TIMED,1 26998U 01055B   24324.67858641  .00002644  00000-0  26004-3 0  9996,2 26998  74.0697 309.7796 0003145 288.3639  71.7202 14.92680112245152,2001-055B,26998,6967.72,96.471,591.776,587.393,0
GENERATED VIA SPACETRACK.ORG API,18 SPCS,26998,TIMED,PAYLOAD,U,01055B,11/19/24 21:06,957856,14.92682705,0.0003145,74.0697,309.3765,287.9225,72.1615,0,999,24504,0.00030562,0.00003115,0,4558286,0 TIMED,1 26998U 01055B   24324.87965229  .00003115  00000-0  30562-3 0  9997,2 26998  74.0697 309.3765 0003145 287.9225  72.1615 14.92682705245041,2001-055B,26998,6967.712,96.471,591.768,587.385,0
GENERATED VIA SPACETRACK.ORG API,18 SPCS,26998,TIMED,PAYLOAD,U,01055B,11/20/24 8:22,840128,14.92683935,0.000316,74.0698,308.4357,287.3269,72.7568,0,999,24511,0.00027077,0.00002755,0,4558927,0 TIMED,1 26998U 01055B   24325.34880602  .00002755  00000-0  27077-3 0  9997,2 26998  74.0698 308.4357 0003160 287.3269  72.7568 14.92683935245115,2001-055B,26998,6967.708,96.471,591.775,587.371,0
GENERATED VIA SPACETRACK.ORG API,18 SPCS,26998,TIMED,PAYLOAD,U,01055B,11/20/24 21:14,291872,14.92687764,0.0003154,74.0698,307.3605,286.5263,73.5574,0,999,24519,0.00029606,0.00003017,0,4559180,0 TIMED,1 26998U 01055B   24325.88498023  .00003017  00000-0  29606-3 0  9990,2 26998  74.0698 307.3605 0003154 286.5263  73.5574 14.92687764245195,2001-055B,26998,6967.696,96.47,591.759,587.363,0
GENERATED VIA SPACETRACK.ORG API,18 SPCS,26998,TIMED,PAYLOAD,U,01055B,11/20/24 22:50,962432,14.92688315,0.0003152,74.0698,307.2261,286.4579,73.6257,0,999,24534,0.00030045,0.00003062,0,4559286,0 TIMED,1 26998U 01055B   24325.95200188  .00003062  00000-0  30045-3 0  9990,2 26998  74.0698 307.2261 0003152 286.4579  73.6257 14.92688315245348,2001-055B,26998,6967.694,96.47,591.755,587.363,0
GENERATED VIA SPACETRACK.ORG API,18 SPCS,26998,TIMED,PAYLOAD,U,01055B,11/21/24 8:29,989248,14.92690614,0.0003159,74.0699,306.4198,286.0134,74.0701,0,999,24526,0.00030507,0.0000311,0,4559469,0 TIMED,1 26998U 01055B   24326.35413182  .00003110  00000-0  30507-3 0  9992,2 26998  74.0699 306.4198 0003159 286.0134  74.0701 14.92690614245264,2001-055B,26998,6967.687,96.47,591.753,587.351,0
GENERATED VIA SPACETRACK.ORG API,18 SPCS,26998,TIMED,PAYLOAD,U,01055B,11/22/24 2:11,190880,14.92696416,0.0003144,74.0698,304.9414,285.1922,74.8913,0,999,24551,0.00034853,0.0000356,0,4559978,0 TIMED,1 26998U 01055B   24327.09136795  .00003560  00000-0  34853-3 0  9993,2 26998  74.0698 304.9414 0003144 285.1922  74.8913 14.92696416245513,2001-055B,26998,6967.669,96.47,591.725,587.343,0
GENERATED VIA SPACETRACK.ORG API,18 SPCS,26998,TIMED,PAYLOAD,U,01055B,11/22/24 8:37,755616,14.92697996,0.0003141,74.0698,304.4039,284.9627,75.1208,0,999,24541,0.00034542,0.00003528,0,4560545,0 TIMED,1 26998U 01055B   24327.35945319  .00003528  00000-0  34542-3 0  9991,2 26998  74.0698 304.4039 0003141 284.9627  75.1208 14.92697996245411,2001-055B,26998,6967.664,96.47,591.718,587.341,0
GENERATED VIA SPACETRACK.ORG API,18 SPCS,26998,TIMED,PAYLOAD,U,01055B,11/22/24 21:29,780544,14.92703043,0.0003139,74.0701,303.3288,283.9995,76.0839,0,999,24549,0.00040514,0.00004145,0,4560808,0 TIMED,1 26998U 01055B   24327.89562246  .00004145  00000-0  40514-3 0  9996,2 26998  74.0701 303.3288 0003139 283.9995  76.0839 14.92703043245493,2001-055B,26998,6967.648,96.469,591.701,587.326,0
GENERATED VIA SPACETRACK.ORG API,18 SPCS,26998,TIMED,PAYLOAD,U,01055B,11/23/24 8:45,53696,14.92706088,0.000314,74.0701,302.388,283.5289,76.5544,0,999,24570,0.00038291,0.00003916,0,4561180,0 TIMED,1 26998U 01055B   24328.36476914  .00003916  00000-0  38291-3 0  9999,2 26998  74.0701 302.3880 0003140 283.5289  76.5544 14.92706088245708,2001-055B,26998,6967.639,96.469,591.692,587.316,0
